C/2015 T2 (PANSTARRS),e,124.5568,51.0069,30.6545,1770,0.0000132,0.99608048,0.0000,05/18.1715/2017,2000,g  8.0,4.0
# From MPC 96280
P/2015 T3 (PANSTARRS),e,13.0937,120.5019,178.6330,4.326181,0.1095335,0.50818108,359.9227,12/21.0/2014,2000,g 14.0,4.0
# From MPC102953
P/2015 TO19 (Lemmon-PANSTARRS),e,6.4995,321.6514,89.1118,4.554928,0.1013869,0.35849313,203.2291,08/31.0/2021,2000,g 14.0,4.0
# From MPC110080
P/2015 TP200 (LINEAR),e,8.7793,7.0098,82.5413,7.271336,0.0502670,0.53521999,88.9140,08/31.0/2021,2000,g 11.0,4.0
# From MPC101097
C/2015 TQ209 (LINEAR),e,11.3072,223.4072,282.0810,537.1065,0.0000792,0.99736503,0.0000,08/24.8838/2016,2000,g 10.5,4.0
# From MPC115881
C/2015 V1 (PANSTARRS),e,139.2256,197.1677,179.6251,2062,0.0000105,0.99792840,0.0000,12/16.5886/2017,2000,g  6.5,4.0
# From MPC112390
C/2015 V2 (Johnson),h,06/11.5675/2017,49.8353,69.9396,164.9998,1.001826,1.646349,2000,5.0,4.0
# From MPC104791
C/2015 V4 (PANSTARRS),e,60.7972,179.9495,306.9144,18.45546,0.0124313,0.70432776,22.7374,08/31.0/2021,2000,g  8.5,4.0
# From MPC115881
C/2015 VL62 (Lemmon-Yeung-PANSTARRS),h,08/27.8601/2017,165.8191,95.1305,128.8704,1.001421,2.721152,2000,8.0,4.0
# From MPC101098
P/2015 W2 (Catalina),e,11.6072,294.2351,117.4844,7.293523,0.0500378,0.63432695,108.1086,08/31.0/2021,2000,g 13.0,4.0
# From MPEC 2021-N06
P/2015 X1 (PANSTARRS),e,12.1518,161.7629,218.8812,3.633808,0.1422857,0.41914117,307.0660,08/31.0/2021,2000,g 16.0,4.0
# From MPEC 2021-P47
C/2015 XY1 (Lemmon),h,04/26.8881/2018,148.8532,281.6110,196.1859,1.001694,7.922669,2000,5.5,4.0
# From MPC 97498
P/2015 X3 (PANSTARRS),e,24.3924,77.2971,306.6748,5.007810,0.0879493,0.43932798,194.7030,08/31.0/2021,2000,g 15.0,4.0
# From MPC119995
C/2015 X5 (PANSTARRS),h,12/28.6026/2017,124.3089,122.3416,27.6099,1.000894,6.795340,2000,7.5,4.0
# From MPC115881
P/2015 X6 (PANSTARRS),e,4.5646,106.9455,329.8413,2.753423,0.2157221,0.17269937,68.5871,08/31.0/2021,2000,g 16.0,4.0
# From MPEC 2021-P47
C/2016 A1 (PANSTARRS),h,11/21.9610/2017,121.2056,128.2050,10.1841,1.000563,5.319889,2000,6.0,4.0
# From MPC100282
P/2016 A2 (Christensen),e,26.4037,291.6174,141.3942,4.752553,0.0951292,0.27053065,215.7998,08/31.0/2021,2000,g 11.5,4.0
# From MPC115881
P/2016 A3 (PANSTARRS),e,8.5101,187.2430,341.0213,7.887682,0.0444918,0.38651774,70.5567,08/31.0/2021,2000,g 10.0,4.0
# From MPC102098
P/2016 A7 (PANSTARRS),e,16.6114,221.4949,352.6069,5.033203,0.0872846,0.56473463,175.9598,08/31.0/2021,2000,g 16.0,4.0
# From MPC106345
C/2016 A8 (LINEAR),e,148.2429,111.3661,130.4982,34.39555,0.0048860,0.94495582,8.9317,08/31.0/2021,2000,g 12.0,4.0
# From MPC107048
C/2016 B1 (NEOWISE),e,50.4313,232.0392,8.6842,432.5437,0.0001096,0.99255900,0.0000,12/04.1790/2016,2000,g  9.5,4.0
# From MPC109143
P/2016 BA14 (PANSTARRS),e,18.8938,180.5267,351.8878,3.024903,0.1873428,0.66516931,13.9905,08/31.0/2021,2000,g 21.0,4.0
# From MPC110494
C/2016 E1 (PANSTARRS),h,06/04.3604/2017,131.8795,233.1035,47.4775,1.006451,8.177286,2000,6.5,4.0
# From MPEC 2021-P47
P/2016 G1 (PANSTARRS),e,10.9706,204.0223,111.1523,2.582868,0.2374382,0.21113294,38.4670,08/31.0/2021,2000,g 14.0,4.0
# From MPEC 2017-D91
P/2016 J1-A (PANSTARRS),e,14.3279,199.8105,46.9696,3.172843,0.1743939,0.22791260,329.7201,08/31.0/2021,2000,g 16.5,4.0
# From MPEC 2017-A77
P/2016 J1-B (PANSTARRS),e,14.3306,199.8153,46.8607,3.172472,0.1744245,0.22776315,329.8526,08/31.0/2021,2000,g 17.0,4.0
# From MPC119995
C/2016 M1 (PANSTARRS),e,90.9661,92.2236,209.9227,20686,0.0000003,0.99989299,0.0000,08/10.4985/2018,2000,g  5.0,4.0
# From MPEC 2021-N06
C/2016 N4 (MASTER),e,72.6410,353.9913,55.9436,3376,0.0000050,0.99905296,0.0000,09/16.9106/2017,2000,g  8.5,4.0
# From MPEC 2021-P47
C/2016 N6 (PANSTARRS),e,105.8420,298.9810,162.6764,1242,0.0000225,0.99785626,0.0000,07/17.8956/2018,2000,g  7.0,4.0
# From MPC102099
P/2016 P1 (PANSTARRS),e,24.4562,319.5651,270.1077,3.193262,0.1727238,0.28905517,14.1120,08/31.0/2021,2000,g 15.0,4.0
# From MPC102099
C/2016 P4 (PANSTARRS),e,29.8803,320.7230,356.2862,424.5566,0.0001127,0.98609928,0.0000,10/18.9183/2016,2000,g 10.5,4.0
# From MPEC 2021-P47
C/2016 Q2 (PANSTARRS),h,05/11.9844/2021,109.3883,322.2952,84.5353,1.001074,7.081878,2000,6.0,4.0
# From MPC102955
C/2016 Q4 (Kowalski),e,7.2541,271.2939,99.4904,16.96073,0.0141103,0.58209822,18.4878,08/31.0/2021,2000,g  7.0,4.0
# From MPEC 2021-N06
C/2016 R2 (PANSTARRS),e,58.2527,80.5498,33.1331,490.7398,0.0000907,0.99470029,0.0000,05/08.9960/2018,2000,g  7.0,4.0
# From MPC102099
C/2016 R3 (Borisov),e,53.0221,78.8442,118.1428,196.5114,0.0003578,0.99768673,0.0000,10/09.7233/2016,2000,g 18.0,4.0
# From MPC109144
P/2016 R4 (Gibbs),e,10.8762,168.2642,174.0554,5.331617,0.0800600,0.47641663,149.3298,08/31.0/2021,2000,g 12.5,4.0
# From MPC105543
P/2016 S1 (PANSTARRS),e,94.6930,227.5774,273.2808,8.278157,0.0413812,0.70995072,67.4136,08/31.0/2021,2000,g 12.0,4.0
# From MPC105238
C/2016 T1 (Matheny),e,129.8513,56.3735,137.5141,125.8773,0.0006979,0.98168057,0.0000,02/01.5408/2017,2000,g 14.5,4.0
# From MPC107685
C/2016 T2 (Matheny),e,81.4089,339.1951,92.1788,99.36165,0.0009951,0.98086234,0.0000,12/29.7163/2016,2000,g 14.5,4.0
# From MPC110082
C/2016 T3 (PANSTARRS),e,22.6894,271.7112,194.6054,129.8788,0.0006659,0.97963754,0.0000,09/06.4284/2017,2000,g 10.5,4.0
# From MPC103847
C/2016 U1 (NEOWISE),h,01/13.5973/2017,46.2317,61.6212,162.7981,1.000402,0.324459,2000,17.0,4.0
# From MPC106345
C/2016 VZ18 (PANSTARRS),e,23.9892,98.9237,36.3805,159.6527,0.0004886,0.99427591,0.0000,03/05.0583/2017,2000,g 19.5,4.0
# From MPC106345
P/2016 WM48 (Lemmon),e,117.4856,59.9091,36.0942,8.165091,0.0422438,0.78368593,69.6862,08/31.0/2021,2000,g 15.0,4.0
# From MPEC 2021-P47
C/2016 X1 (Lemmon),e,26.4530,256.3917,224.4819,1246,0.0000224,0.99393323,0.0000,04/28.1147/2019,2000,g  6.0,4.0
# From MPC108594
C/2017 A1 (PANSTARRS),e,49.7972,121.0373,1.9737,75.48543,0.0015028,0.96968776,2.3565,08/31.0/2021,2000,g 13.0,4.0
# From MPC108594
C/2017 A3 (Elenin),e,98.5183,97.8798,303.9582,43.39487,0.0034478,0.91144737,5.7683,08/31.0/2021,2000,g  9.5,4.0
# From MPC114598
C/2017 AB5 (PANSTARRS),e,32.4484,42.6236,78.3084,2231,0.0000094,0.99587196,0.0000,02/14.7833/2018,2000,g  5.5,4.0
# From MPEC 2021-P47
C/2017 B3 (LINEAR),h,02/02.4131/2019,54.1636,2.1776,284.8077,1.001289,3.924563,2000,6.0,4.0
# From MPC103847
P/2017 B4 (PANSTARRS),e,20.0584,121.4578,11.0197,4.410520,0.1064068,0.36495152,359.9130,01/05.0/2017,2000,g 14.5,4.0
# From MPC104793
C/2017 C1 (NEOWISE),e,65.7686,357.5840,110.0152,20.56023,0.0105721,0.92720613,17.8184,08/31.0/2021,2000,g 18.0,4.0
# From MPC107685
C/2017 C2 (PANSTARRS),e,118.5848,249.7346,138.5421,95.42418,0.0010573,0.97462683,0.0000,01/21.2736/2017,2000,g 14.0,4.0
# From MPC104793
P/2017 D1 (Fuls),e,20.7568,82.1805,8.0018,4.829517,0.0928642,0.43628231,175.9670,08/31.0/2021,2000,g 14.0,4.0
# From MPC112391
C/2017 D2 (Barros),e,31.2585,330.9439,334.5870,7700,0.0000015,0.99967614,0.0000,07/14.8694/2017,2000,g 11.0,4.0
# From MPC114598
C/2017 D3 (ATLAS),h,04/27.4726/2017,125.5894,186.7017,340.8461,1.002224,4.969888,2000,8.0,4.0
# From MPC110495
P/2017 D4 (PANSTARRS),e,10.5335,264.9373,212.2347,7.558124,0.0474333,0.62832804,86.3898,08/31.0/2021,2000,g 13.0,4.0
# From MPC104794
C/2017 D5 (PANSTARRS),e,131.0370,92.6856,287.6569,113.6940,0.0008130,0.98103572,0.0000,01/09.7266/2017,2000,g 16.0,4.0
# From MPC106346
C/2017 E1 (Borisov),h,04/10.5994/2017,14.5734,142.5579,152.7518,1.003194,0.904372,2000,14.0,4.0
# From MPEC 2021-P47
C/2017 E3 (PANSTARRS),h,06/07.6485/2017,70.6511,220.7705,334.4980,1.006265,5.938210,2000,6.5,4.0
# From MPC105239
C/2017 E4 (Lovejoy),h,04/23.5493/2017,88.0200,222.8919,87.0687,1.001492,0.491113,2000,17.0,4.0
# From MPC111769
C/2017 F1 (Lemmon),h,11/29.5354/2017,146.4593,158.7891,64.7341,1.002708,4.496330,2000,10.5,4.0
# From MPC114598
C/2017 F2 (PANSTARRS),h,11/26.7156/2017,42.5367,38.6852,134.9942,1.002806,6.930524,2000,7.5,4.0
# From MPC104794
P/2017 G1 (PANSTARRS),e,4.7763,249.6357,224.4818,7.283001,0.0501463,0.65295852,97.8934,08/31.0/2021,2000,g 13.5,4.0
# From MPC108595
P/2017 G2 (PANSTARRS),e,47.9478,79.7921,105.5230,8.061359,0.0430618,0.64780397,66.4183,08/31.0/2021,2000,g 13.0,4.0
# From MPEC 2021-P47
C/2017 G3 (PANSTARRS),e,159.0457,279.4687,73.0825,315.5358,0.0001758,0.99180556,0.0000,04/16.1823/2017,2000,g 14.0,4.0
# From MPC115882
C/2017 K1 (PANSTARRS),h,03/17.9070/2018,154.0183,225.6906,4.4340,1.003052,7.289176,2000,7.0,4.0
# From MPEC 2021-P47
C/2017 K2 (PANSTARRS),h,12/19.7237/2022,87.5544,88.2419,236.1922,1.000607,1.797300,2000,1.5,4.0
# From MPEC 2021-N06
P/2017 K3 (Gasparovic),e,4.2730,354.2876,253.4414,5.583116,0.0747118,0.58001041,116.0629,08/31.0/2021,2000,g 14.5,4.0
# From MPC114598
C/2017 K4 (ATLAS),e,16.6777,298.8773,15.2867,28.61138,0.0064401,0.90723417,8.5683,08/31.0/2021,2000,g 10.0,4.0
# From MPEC 2021-P47
C/2017 K5 (PANSTARRS),h,03/26.9863/2020,82.2327,102.3714,172.0294,1.005841,7.681600,2000,5.0,4.0
# From MPC114599
C/2017 K6 (Jacques),e,57.2385,84.9961,303.7532,1108,0.0000267,0.99819786,0.0000,01/03.6408/2018,2000,g 11.0,4.0
# From MPEC 2021-P47
C/2017 M3 (PANSTARRS),e,77.5787,7.0304,110.3078,166.7343,0.0004578,0.97208381,0.0000,04/28.1651/2017,2000,g 10.5,4.0
# From MPEC 2021-P47
C/2017 M4 (ATLAS),h,01/17.9527/2019,105.6487,65.9003,167.6142,1.001339,3.253639,2000,6.0,4.0
# From MPC118841
C/2017 M5 (TOTAS),h,06/04.4491/2018,15.8722,216.2869,92.7996,1.005525,5.997285,2000,6.5,4.0
# From MPC114599
C/2017 O1 (ASASSN),e,39.9413,25.7378,20.8345,360.7407,0.0001439,0.99586243,0.0000,10/15.1895/2017,2000,g 11.0,4.0
# From MPC114599
P/2017 P1 (PANSTARRS),e,7.6937,221.3910,122.4277,7.901779,0.0443728,0.31098925,51.8033,08/31.0/2021,2000,g 10.0,4.0
# From MPC114599
C/2017 P2 (PANSTARRS),e,50.0491,165.4623,132.4288,2400,0.0000084,0.99897113,0.0000,12/06.5178/2017,2000,g 10.0,4.0
# From MPC114599
P/2017 R1 (PANSTARRS),e,2.5744,143.6165,178.6574,4.134979,0.1172180,0.19571461,187.8972,08/31.0/2021,2000,g 13.5,4.0
# From MPC108595
